NORAD_CAT_ID,OBJECT_NAME,OBJECT_TYPE,EPOCH,MEAN_MOTION,ECCENTRICITY,INCLINATION,RA_OF_ASC_NODE,ARG_OF_PERICENTER,MEAN_ANOMALY,BSTAR,MEAN_MOTION_DOT,MEAN_MOTION_DDOT,TLE_LINE0,TLE_LINE1,TLE_LINE2,SEMIMAJOR_AXIS,PERIOD,APOGEE,PERIGEE,DECAYED
52379.0,STARLINK-3800,PAYLOAD,2022-10-14 11:24:03,15.08835496,0.0002031,53.2202,5.6321,42.233,317.8818,-1.2948e-05,-4.94e-06,0.0,0 STARLINK-3800,1 52379U 22045BA  22287.47504320 -.00000494  00000-0 -12948-4 0  9992,2 52379  53.2202   5.6321 0002031  42.2330 317.8818 15.08835496 28396,6917.894,95.438,541.164,538.354,0.0
52379.0,STARLINK-3800,PAYLOAD,2022-10-14 12:59:26,15.08837997,0.0001968,53.2199,5.3342,42.0442,318.0701,2.0586e-05,3.9e-07,0.0,0 STARLINK-3800,1 52379U 22045BA  22287.54128181  .00000039  00000-0  20586-4 0  9997,2 52379  53.2199   5.3342 0001968  42.0442 318.0701 15.08837997 28405,6917.887,95.438,541.113,538.39,0.0
52379.0,STARLINK-3800,PAYLOAD,2022-10-14 17:45:35,15.08844493,0.0002056999999999,53.2199,4.4426,41.2207,318.894,0.00012829,1.754e-05,0.0,0 STARLINK-3800,1 52379U 22045BA  22287.73999869  .00001754  00000-0  12829-3 0  9992,2 52379  53.2199   4.4426 0002057  41.2207 318.8940 15.08844493 28433,6917.8669999999975,95.437,541.155,538.309,0.0
52379.0,STARLINK-3800,PAYLOAD,2022-10-14 22:31:44,15.08854541,0.0001906,53.2195,3.5499,40.3136,319.7997,0.0003508999999999,5.303e-05,0.0,0 STARLINK-3800,1 52379U 22045BA  22287.93871359  .00005303  00000-0  35090-3 0  9996,2 52379  53.2195   3.5499 0001906  40.3136 319.7997 15.08854541 28462,6917.8359999999975,95.437,541.019,538.382,0.0
52379.0,STARLINK-3800,PAYLOAD,2022-10-15 12:50:12,15.088401,0.0002195,53.2192,0.8742,30.4311,329.6808,-1.1086e-05,-4.65e-06,0.0,0 STARLINK-3800,1 52379U 22045BA  22288.53487095 -.00000465  00000-0 -11086-4 0  9999,2 52379  53.2192   0.8742 0002195  30.4311 329.6808 15.08840100 28553,6917.88,95.438,541.264,538.227,0.0
52379.0,STARLINK-3800,PAYLOAD,2022-10-15 16:00:59,15.08851757,0.000216,53.2201,0.2793,42.2349,317.8809,-8.4824e-05,-1.639e-05,0.0,0 STARLINK-3800,1 52379U 22045BA  22288.66734956 -.00001639  00000-0 -84824-4 0  9998,2 52379  53.2201   0.2793 0002160  42.2349 317.8809 15.08851757 28570,6917.844,95.437,541.2040000000002,538.215,0.0
52379.0,STARLINK-3800,PAYLOAD,2022-10-16 11:05:37,15.08819724,0.000194,53.2195,356.7109,36.1547,323.9576,-0.00035232,-5.888e-05,0.0,0 STARLINK-3800,1 52379U 22045BA  22289.46224433 -.00005888  00000-0 -35232-3 0  9999,2 52379  53.2195 356.7109 0001940  36.1547 323.9576 15.08819724 28699,6917.941999999999,95.439,541.149,538.465,0.0
52379.0,STARLINK-3800,PAYLOAD,2022-10-16 15:51:47,15.08813354,0.0002032999999999,53.2192,355.819,34.3227,325.7897,-0.00017543,-3.077e-05,0.0,0 STARLINK-3800,1 52379U 22045BA  22289.66096696 -.00003077  00000-0 -17543-3 0  9992,2 52379  53.2192 355.8190 0002033  34.3227 325.7897 15.08813354 28728,6917.962,95.439,541.2330000000002,538.42,0.0
52379.0,STARLINK-3800,PAYLOAD,2022-10-17 10:56:26,15.08835257,0.0002118,53.2195,352.2514,33.8266,326.2861,0.00099903,0.00015645,0.0,0 STARLINK-3800,1 52379U 22045BA  22290.45585676  .00015645  00000-0  99903-3 0  9994,2 52379  53.2195 352.2514 0002118  33.8266 326.2861 15.08835257 28849,6917.895,95.438,541.225,538.295,0.0
52379.0,STARLINK-3800,PAYLOAD,2022-10-17 12:31:49,15.08838631,0.000212,53.2195,351.954,33.5701,326.5425,0.0010479,0.00016428,0.0,0 STARLINK-3800,1 52379U 22045BA  22290.52209665  .00016428  00000-0  10479-2 0  9993,2 52379  53.2195 351.9540 0002120  33.5701 326.5425 15.08838631 28857,6917.885,95.438,541.216,538.283,0.0
52379.0,STARLINK-3800,PAYLOAD,2022-10-17 15:42:35,15.08844407,0.0002131999999999,53.2195,351.3591,33.8278,326.285,0.0010644,0.00016695,0.0,0 STARLINK-3800,1 52379U 22045BA  22290.65457604  .00016695  00000-0  10644-2 0  9995,2 52379  53.2195 351.3591 0002132  33.8278 326.2850 15.08844407 28871,6917.8669999999975,95.437,541.207,538.257,0.0
52379.0,STARLINK-3800,PAYLOAD,2022-10-18 09:11:50,15.08833885,0.0001978,53.2198,348.0859,41.6692,318.4451,0.00018575,2.669e-05,0.0,0 STARLINK-3800,1 52379U 22045BA  22291.38322012  .00002669  00000-0  18575-3 0  9998,2 52379  53.2198 348.0859 0001978  41.6692 318.4451 15.08833885 28988,6917.899,95.438,541.132,538.396,0.0
52379.0,STARLINK-3800,PAYLOAD,2022-10-18 13:57:59,15.08832121,0.0002169,53.2196,347.1967,35.9818,324.132,0.00020734,3.012e-05,0.0,0 STARLINK-3800,1 52379U 22045BA  22291.58194363  .00003012  00000-0  20734-3 0  9999,2 52379  53.2196 347.1967 0002169  35.9818 324.1320 15.08832121 29011,6917.904,95.438,541.27,538.269,0.0
52379.0,STARLINK-3800,PAYLOAD,2022-10-19 12:13:23,15.08834302,0.0002142,53.2198,343.034,34.3176,325.7954,3.3685e-05,2.48e-06,0.0,0 STARLINK-3800,1 52379U 22045BA  22292.50930449  .00000248  00000-0  33685-4 0  9993,2 52379  53.2198 343.0340 0002142  34.3176 325.7954 15.08834302 29152,6917.898,95.438,541.245,538.281,0.0
52379.0,STARLINK-3800,PAYLOAD,2022-10-20 10:28:47,15.088362099999998,0.000212,53.2191,338.8693,34.5682,325.5448,9.8015e-05,1.272e-05,0.0,0 STARLINK-3800,1 52379U 22045BA  22293.43666511  .00001272  00000-0  98015-4 0  9998,2 52379  53.2191 338.8693 0002120  34.5682 325.5448 15.08836210 29299,6917.892,95.438,541.224,538.29,0.0
52379.0,STARLINK-3800,PAYLOAD,2022-10-20 12:04:11,15.088345,0.0002134999999999,53.2194,338.5726,35.5426,324.5709,0.00011827,1.594e-05,0.0,0 STARLINK-3800,1 52379U 22045BA  22293.50290771  .00001594  00000-0  11827-3 0  9999,2 52379  53.2194 338.5726 0002135  35.5426 324.5709 15.08834500 29300,6917.897,95.438,541.239,538.285,0.0
52379.0,STARLINK-3800,PAYLOAD,2022-10-21 02:22:39,15.08841342,0.0002063,53.2191,335.8957,34.3009,325.8116,8.8132e-05,1.115e-05,0.0,0 STARLINK-3800,1 52379U 22045BA  22294.09906404  .00001115  00000-0  88132-4 0  9994,2 52379  53.2191 335.8957 0002063  34.3009 325.8116 15.08841342 29394,6917.876,95.437,541.168,538.314,0.0
52379.0,STARLINK-3800,PAYLOAD,2022-10-21 10:19:35,15.08835017,0.0002026999999999,53.2196,334.4087,37.0289,323.0843,6.3374e-05,7.200000000000001e-06,0.0,0 STARLINK-3800,1 52379U 22045BA  22294.43027104  .00000720  00000-0  63374-4 0  9995,2 52379  53.2196 334.4087 0002027  37.0289 323.0843 15.08835017 29443,6917.896,95.438,541.163,538.3580000000002,0.0
52379.0,STARLINK-3800,PAYLOAD,2022-10-21 11:54:58,15.08834744,0.0002096,53.2197,334.1116,35.0265,325.0865,5.6603e-05,6.13e-06,0.0,0 STARLINK-3800,1 52379U 22045BA  22294.49651145  .00000613  00000-0  56603-4 0  9997,2 52379  53.2197 334.1116 0002096  35.0265 325.0865 15.08834744 29455,6917.896,95.438,541.211,538.311,0.0
52379.0,STARLINK-3800,PAYLOAD,2022-10-21 19:51:54,15.0883491,0.0002166999999999,53.2199,332.6252,32.6993,327.4133,0.0001675999999999,2.380000000000001e-05,0.0,0 STARLINK-3800,1 52379U 22045BA  22294.82770961  .00002380  00000-0  16760-3 0  9994,2 52379  53.2199 332.6252 0002167  32.6993 327.4133 15.08834910 29506,6917.896,95.438,541.26,538.262,0.0
52379.0,STARLINK-3800,PAYLOAD,2022-10-22 11:45:45,15.08835793,0.0002218999999999,53.2198,329.6521,36.3582,323.756,8.6164e-05,1.083e-05,0.0,0 STARLINK-3800,1 52379U 22045BA  22295.49011120  .00001083  00000-0  86164-4 0  9998,2 52379  53.2198 329.6521 0002219  36.3582 323.7560 15.08835793 29607,6917.893,95.438,541.293,538.2230000000002,0.0
52379.0,STARLINK-3800,PAYLOAD,2022-10-22 13:21:08,15.08836793,0.0002247,53.2199,329.3546,36.304,323.8104,9.1446e-05,1.167e-05,0.0,0 STARLINK-3800,1 52379U 22045BA  22295.55635059  .00001167  00000-0  91446-4 0  9990,2 52379  53.2199 329.3546 0002247  36.3040 323.8104 15.08836793 29619,6917.89,95.438,541.31,538.201,0.0
52379.0,STARLINK-3800,PAYLOAD,2022-10-23 05:14:58,15.08850974,0.0002276999999999,53.2197,326.3814,36.4803,323.6344,0.00024652,3.638e-05,0.0,0 STARLINK-3800,1 52379U 22045BA  22296.21873799  .00003638  00000-0  24652-3 0  9998,2 52379  53.2197 326.3814 0002277  36.4803 323.6344 15.08850974 29715,6917.847,95.437,541.2869999999998,538.137,0.0
52379.0,STARLINK-3800,PAYLOAD,2022-10-23 11:36:31,15.08862697,0.0002359,53.2186,325.1927,38.1175,321.9984,0.0004994,7.674e-05,0.0,0 STARLINK-3800,1 52379U 22045BA  22296.48369663  .00007674  00000-0  49940-3 0  9998,2 52379  53.2186 325.1927 0002359  38.1175 321.9984 15.08862697 29757,6917.811,95.436,541.308,538.044,0.0
52379.0,STARLINK-3800,PAYLOAD,2022-10-23 19:33:27,15.08856288,0.0002383,53.2183,323.7057,38.3863,321.7298,0.00030374,4.551e-05,0.0,0 STARLINK-3800,1 52379U 22045BA  22296.81489676  .00004551  00000-0  30374-3 0  9994,2 52379  53.2183 323.7057 0002383  38.3863 321.7298 15.08856288 29806,6917.831,95.437,541.344,538.047,0.0
52379.0,STARLINK-3800,PAYLOAD,2022-10-24 08:16:32,15.08846316,0.0002624,53.2186,321.329,36.6432,323.4739,-0.00013445,-2.428e-05,0.0,0 STARLINK-3800,1 52379U 22045BA  22297.34481608 -.00002428  00000-0 -13445-3 0  9993,2 52379  53.2186 321.3290 0002624  36.6432 323.4739 15.08846316 29881,6917.861,95.437,541.5409999999998,537.911,0.0
52379.0,STARLINK-3800,PAYLOAD,2022-10-24 13:02:41,15.088278,0.0002477,53.2181,320.4349,38.0062,322.1104,-0.00055051,-9.037e-05,0.0,0 STARLINK-3800,1 52379U 22045BA  22297.54354094 -.00009037  00000-0 -55051-3 0  9995,2 52379  53.2181 320.4349 0002477  38.0062 322.1104 15.08827800 29915,6917.918000000002,95.438,541.496,538.069,0.0
52379.0,STARLINK-3800,PAYLOAD,2022-10-25 11:18:07,15.088232,0.0002387999999999,53.2185,316.2719,37.0288,323.0869,-0.00016574,-2.924e-05,0.0,0 STARLINK-3800,1 52379U 22045BA  22298.47091529 -.00002924  00000-0 -16574-3 0  9994,2 52379  53.2185 316.2719 0002388  37.0288 323.0869 15.08823200 30058,6917.932,95.439,541.4490000000002,538.145,0.0
52379.0,STARLINK-3800,PAYLOAD,2022-10-25 12:53:30,15.08822475,0.0002403,53.2184,315.9744,36.2632,323.8523,-0.00015995,-2.832e-05,0.0,0 STARLINK-3800,1 52379U 22045BA  22298.53715640 -.00002832  00000-0 -15995-3 0  9992,2 52379  53.2184 315.9744 0002403  36.2632 323.8523 15.08822475 30062,6917.934,95.439,541.461,538.137,0.0
